TEVEL2-4                
1 63213U 25052D   26068.69417973  .00020990  00000+0  70363-3 0  9998
2 63213  97.4009 325.1237 0004733  95.3468 264.8313 15.30925813 54879
STARLINK-36524          
1 67452U 26008H   26068.86228837  .00042245  00000+0  15351-2 0  9999
2 67452  43.0011 204.6815 0002449 288.5037  71.5549 15.27595859  9593
